IRIDIUM 136             
1 42962U 17061H   24087.49682755  .00000635  00000+0  21986-3 0  9997
2 42962  86.4034   4.4564 0002265  93.9470 266.1985 14.34212483338496
